{
  "input": [
   
  
    {
      "name": "Sai Hotel",
      "ownerName": "",
      "address": "bhatta colony, Salarpur",
      "areaCode": "8938584",
      "rent": "2400",
      "preferredTenant": "",
      "image": "",
      "ownername": "Sudhashu",
      "bachelar": "on",
      "": "4rtertyt3234123e",
      "id": 30
    },
    {
      "name": "Sai Hotel",
      "ownerName": "",
      "address": "bhatta colony, Salarpur",
      "areaCode": "8938584",
      "rent": "2400",
      "preferredTenant": "",
      "image": "",
      "ownername": "Sudhashu",
      "bachelar": "on",
      "": "4rtertyt3234123e",
      "id": 31
    },
    {
      "name": "Sai Hotel",
      "ownerName": "",
      "address": "bhatta colony, Salarpur",
      "areaCode": "8938584",
      "rent": "2400",
      "preferredTenant": "",
      "image": "",
      "ownername": "Sudhashu",
      "bachelar": "on",
      "": "4rtertyt3234123e",
      "id": 32
    },
    {
      "name": "Sai Hotel",
      "ownerName": "",
      "address": "bhatta colony, Salarpur",
      "areaCode": "8938584",
      "rent": "2400",
      "preferredTenant": "",
      "image": "",
      "ownername": "Sudhashu",
      "bachelar": "on",
      "": "4rtertyt3234123e",
      "id": 33
    },
    {
      "name": "Sai Hotel",
      "ownerName": "",
      "address": "bhatta colony, Salarpur",
      "areaCode": "8938584",
      "rent": "2400",
      "preferredTenant": "",
      "image": "",
      "ownername": "Sudhashu",
      "bachelar": "on",
      "": "4rtertyt3234123e",
      "id": 34
    },
    {
      "name": "Sai Hotel",
      "ownerName": "",
      "address": "bhatta colony, Salarpur",
      "areaCode": "8938584",
      "rent": "2400",
      "preferredTenant": "",
      "image": "",
      "ownername": "Sudhashu",
      "bachelar": "on",
      "": "4rtertyt3234123e",
      "id": 35
    },
    {
      "name": "Sai Hotel",
      "ownerName": "",
      "address": "bhatta colony, Salarpur",
      "areaCode": "8938584",
      "rent": "2400",
      "preferredTenant": "",
      "image": "",
      "ownername": "Sudhashu",
      "bachelar": "on",
      "": "4rtertyt3234123e",
      "id": 36
    },
    {
      "name": "Sai Hotel",
      "ownerName": "",
      "address": "bhatta colony, Salarpur",
      "areaCode": "8938584",
      "rent": "2400",
      "preferredTenant": "",
      "image": "",
      "ownername": "Sudhashu",
      "bachelar": "on",
      "": "4rtertyt3234123e",
      "id": 37
    },
    {
      "name": "Sai Hotel",
      "ownerName": "",
      "address": "bhatta colony, Salarpur",
      "areaCode": "8938584",
      "rent": "2400",
      "preferredTenant": "",
      "image": "",
      "ownername": "Sudhashu",
      "bachelar": "on",
      "": "4rtertyt3234123e",
      "id": 38
    },
    {
      "name": "Sai Hotel",
      "ownerName": "",
      "address": "bhatta colony, Salarpur",
      "areaCode": "8938584",
      "rent": "2400",
      "preferredTenant": "",
      "image": "",
      "ownername": "Sudhashu",
      "bachelar": "on",
      "": "4rtertyt3234123e",
      "id": 39
    },
    {
      "name": "Sai Hotel",
      "ownerName": "",
      "address": "bhatta colony, Salarpur",
      "areaCode": "8938584",
      "rent": "2400",
      "preferredTenant": "",
      "image": "",
      "ownername": "Sudhashu",
      "bachelar": "on",
      "": "4rtertyt3234123e",
      "id": 40
    },
    {
      "name": "Sai Hotel",
      "ownerName": "",
      "address": "bhatta colony, Salarpur",
      "areaCode": "8938584",
      "rent": "2400",
      "preferredTenant": "",
      "image": "",
      "ownername": "Sudhashu",
      "bachelar": "on",
      "": "4rtertyt3234123e",
      "id": 41
    },
    {
      "name": "Sai Hotel",
      "ownerName": "",
      "address": "bhatta colony, Salarpur",
      "areaCode": "8938584",
      "rent": "2400",
      "preferredTenant": "",
      "image": "",
      "ownername": "Sudhashu",
      "bachelar": "on",
      "": "4rtertyt3234123e",
      "id": 42
    },
    {
      "name": "Sai Hotel",
      "ownerName": "",
      "address": "bhatta colony, Salarpur",
      "areaCode": "8938584",
      "rent": "2400",
      "preferredTenant": "",
      "image": "",
      "ownername": "Sudhashu",
      "bachelar": "on",
      "": "4rtertyt3234123e",
      "id": 43
    },
    {
      "name": "Sai Hotel",
      "ownerName": "",
      "address": "bhatta colony, Salarpur",
      "areaCode": "8938584",
      "rent": "2400",
      "preferredTenant": "",
      "image": "",
      "ownername": "Sudhashu",
      "bachelar": "on",
      "": "4rtertyt3234123e",
      "id": 44
    },
    {
      "name": "Sai Hotel",
      "ownerName": "",
      "address": "bhatta colony, Salarpur",
      "areaCode": "8938584",
      "rent": "2400",
      "preferredTenant": "",
      "image": "",
      "ownername": "Sudhashu",
      "bachelar": "on",
      "": "4rtertyt3234123e",
      "id": 45
    },
    {
      "name": "Sai Hotel",
      "ownerName": "",
      "address": "bhatta colony, Salarpur",
      "areaCode": "8938584",
      "rent": "2400",
      "preferredTenant": "",
      "image": "",
      "ownername": "Sudhashu",
      "bachelar": "on",
      "": "4rtertyt3234123e",
      "id": 46
    },
    {
      "name": "Sai Hotel",
      "ownerName": "",
      "address": "bhatta colony, Salarpur",
      "areaCode": "8938584",
      "rent": "2400",
      "preferredTenant": "",
      "image": "",
      "ownername": "Sudhashu",
      "bachelar": "on",
      "": "4rtertyt3234123e",
      "id": 47
    },
    {
      "name": "Sai Hotel",
      "ownerName": "",
      "address": "bhatta colony, Salarpur",
      "areaCode": "8938584",
      "rent": "2400",
      "preferredTenant": "",
      "image": "",
      "ownername": "Sudhashu",
      "bachelar": "on",
      "": "4rtertyt3234123e",
      "id": 48
    },
    {
      "name": "Sai Hotel",
      "ownerName": "",
      "address": "bhatta colony, Salarpur",
      "areaCode": "8938584",
      "rent": "2400",
      "preferredTenant": "",
      "image": "",
      "ownername": "Sudhashu",
      "bachelar": "on",
      "": "4rtertyt3234123e",
      "id": 49
    },
    {
      "name": "Sai Hotel",
      "ownerName": "",
      "address": "bhatta colony, Salarpur",
      "areaCode": "8938584",
      "rent": "2400",
      "preferredTenant": "",
      "image": "",
      "ownername": "Sudhashu",
      "bachelar": "on",
      "": "4rtertyt3234123e",
      "id": 50
    },
    {
      "name": "Sai Hotel",
      "ownerName": "",
      "address": "bhatta colony, Salarpur",
      "areaCode": "8938584",
      "rent": "2400",
      "preferredTenant": "",
      "image": "",
      "ownername": "Sudhashu",
      "bachelar": "on",
      "": "4rtertyt3234123e",
      "id": 51
    },
    {
      "name": "Sai Hotel",
      "ownerName": "",
      "address": "bhatta colony, Salarpur",
      "areaCode": "8938584",
      "rent": "2400",
      "preferredTenant": "",
      "image": "",
      "ownername": "Sudhashu",
      "bachelar": "on",
      "": "4rtertyt3234123e",
      "id": 52
    },
    {
      "name": "Sai Hotel",
      "ownerName": "",
      "address": "bhatta colony, Salarpur",
      "areaCode": "8938584",
      "rent": "2400",
      "preferredTenant": "",
      "image": "",
      "ownername": "Sudhashu",
      "bachelar": "on",
      "": "4rtertyt3234123e",
      "id": 53
    },
    {
      "name": "Sai Hotel",
      "ownerName": "",
      "address": "bhatta colony, Salarpur",
      "areaCode": "8938584",
      "rent": "2400",
      "preferredTenant": "",
      "image": "",
      "ownername": "Sudhashu",
      "bachelar": "on",
      "": "4rtertyt3234123e",
      "id": 54
    },
    {
      "name": "Sai Hotel",
      "ownerName": "",
      "address": "bhatta colony, Salarpur",
      "areaCode": "8938584",
      "rent": "2400",
      "preferredTenant": "",
      "image": "",
      "ownername": "Sudhashu",
      "bachelar": "on",
      "": "4rtertyt3234123e",
      "id": 55
    },
    {
      "name": "Sai Hotel",
      "ownerName": "",
      "address": "bhatta colony, Salarpur",
      "areaCode": "8938584",
      "rent": "2400",
      "preferredTenant": "",
      "image": "",
      "ownername": "Sudhashu",
      "bachelar": "on",
      "": "4rtertyt3234123e",
      "id": 56
    },
    {
      "name": "Sai hotel",
      "ownerName": "",
      "address": "bhatta colony, Salarpur",
      "areaCode": "8938584",
      "rent": "2400",
      "preferredTenant": "",
      "image": "",
      "ownername": "Sudhashu",
      "bachelar": "on",
      "": "dfdasdfgbhngfdq3rtyhf",
      "id": 57
    },
    {
      "name": "Sai hotel",
      "ownerName": "",
      "address": "bhatta colony, Salarpur",
      "areaCode": "8938584",
      "rent": "2400",
      "preferredTenant": "",
      "image": "",
      "ownername": "Sudhashu",
      "bachelar": "on",
      "": "dfdasdfgbhngfdq3rtyhf",
      "id": 58
    },
    {
      "name": "Sai hotel",
      "ownerName": "",
      "address": "bhatta colony, Salarpur",
      "areaCode": "8938584",
      "rent": "2400",
      "preferredTenant": "",
      "image": "",
      "ownername": "Sudhashu",
      "bachelar": "on",
      "": "dfdasdfgbhngfdq3rtyhf",
      "id": 59
    },
    {
      "name": "Sai hotel",
      "ownerName": "",
      "address": "bhatta colony, Salarpur",
      "areaCode": "8938584",
      "rent": "2400",
      "preferredTenant": "",
      "image": "",
      "ownername": "Sudhashu",
      "bachelar": "on",
      "": "dfdasdfgbhngfdq3rtyhf",
      "id": 60
    },
    {
      "name": "Sai hotel",
      "ownerName": "",
      "address": "bhatta colony, Salarpur",
      "areaCode": "8938584",
      "rent": "2400",
      "preferredTenant": "",
      "image": "",
      "ownername": "Sudhashu",
      "bachelar": "on",
      "": "dfdasdfgbhngfdq3rtyhf",
      "id": 61
    },
    {
      "name": "Sai hotel",
      "ownerName": "",
      "address": "bhatta colony, Salarpur",
      "areaCode": "8938584",
      "rent": "2400",
      "preferredTenant": "",
      "image": "",
      "ownername": "Sudhashu",
      "bachelar": "on",
      "": "dfdasdfgbhngfdq3rtyhf",
      "id": 62
    },
    {
      "name": "Sai hotel",
      "ownerName": "",
      "address": "bhatta colony, Salarpur",
      "areaCode": "8938584",
      "rent": "2400",
      "preferredTenant": "",
      "image": "",
      "ownername": "Sudhashu",
      "bachelar": "on",
      "": "dfdasdfgbhngfdq3rtyhf",
      "id": 63
    },
    {
      "name": "Aman katiyar hotel",
      "ownerName": "",
      "address": "bhatta colony, Salarpur",
      "areaCode": "764543",
      "rent": "2400",
      "preferredTenant": "",
      "image": "",
      "ownername": "Prabhu",
      "married": "on",
      "": "ghj,mnbvcdsdfrghjnhgfdsxc",
      "id": 64
    },
    {
      "name": "Panjabi dhaba",
      "ownerName": "",
      "address": "Punjab",
      "areaCode": "845838",
      "rent": "3000",
      "preferredTenant": "",
      "image": "",
      "ownername": "Preeti",
      "bachelar": "on",
      "": "dfghgfdfddfgnb",
      "id": 65
    },
    {
      "name": "urmila hotel",
      "ownerName": "",
      "address": "Dubai",
      "areaCode": "234322",
      "rent": "50000",
      "preferredTenant": "",
      "image": "",
      "ownername": "Majnu",
      "married": "on",
      "": "qwedfghjhgfdswwertgyh",
      "id": 66
    }
  ]
}